CCSDS_OMM_VERS = 2.0
CREATION_DATE  = 
ORIGINATOR     = 

OBJECT_NAME    = SL-3 R/B
OBJECT_ID      = 1982-079B
CENTER_NAME    = EARTH
REF_FRAME      = TEME
TIME_SYSTEM    = UTC
MEAN_ELEMENT_THEORY = SGP/SGP4

EPOCH          = 2025-12-28T10:36:26.341056
MEAN_MOTION    = 15.23781492
ECCENTRICITY   = .002669
INCLINATION    = 81.1471
RA_OF_ASC_NODE = 277.1510
ARG_OF_PERICENTER = 48.7738
MEAN_ANOMALY   = 311.5788

EPHEMERIS_TYPE = 0
CLASSIFICATION_TYPE = U
NORAD_CAT_ID   = 13403
ELEMENT_SET_NO = 999
REV_AT_EPOCH   = 36684
BSTAR          = .35193E-3
MEAN_MOTION_DOT = .858E-4
MEAN_MOTION_DDOT = 0

CCSDS_OMM_VERS = 2.0
CREATION_DATE  = 
ORIGINATOR     = 

OBJECT_NAME    = SL-14 R/B
OBJECT_ID      = 1982-092B
CENTER_NAME    = EARTH
REF_FRAME      = TEME
TIME_SYSTEM    = UTC
MEAN_ELEMENT_THEORY = SGP/SGP4

EPOCH          = 2025-12-28T07:37:23.701152
MEAN_MOTION    = 14.86571050
ECCENTRICITY   = .0020437
INCLINATION    = 82.5668
RA_OF_ASC_NODE = 208.1427
ARG_OF_PERICENTER = 173.8335
MEAN_ANOMALY   = 359.3465

EPHEMERIS_TYPE = 0
CLASSIFICATION_TYPE = U
NORAD_CAT_ID   = 13553
ELEMENT_SET_NO = 999
REV_AT_EPOCH   = 31832
BSTAR          = .66447E-4
MEAN_MOTION_DOT = .615E-5
MEAN_MOTION_DDOT = 0

CCSDS_OMM_VERS = 2.0
CREATION_DATE  = 
ORIGINATOR     = 

OBJECT_NAME    = SL-3 R/B
OBJECT_ID      = 1983-010B
CENTER_NAME    = EARTH
REF_FRAME      = TEME
TIME_SYSTEM    = UTC
MEAN_ELEMENT_THEORY = SGP/SGP4

EPOCH          = 2025-12-28T06:20:39.011424
MEAN_MOTION    = 15.43897746
ECCENTRICITY   = .001645
INCLINATION    = 81.1041
RA_OF_ASC_NODE = 89.6637
ARG_OF_PERICENTER = 295.8150
MEAN_ANOMALY   = 64.1396

EPHEMERIS_TYPE = 0
CLASSIFICATION_TYPE = U
NORAD_CAT_ID   = 13819
ELEMENT_SET_NO = 999
REV_AT_EPOCH   = 34691
BSTAR          = .41395E-3
MEAN_MOTION_DOT = .18941E-3
MEAN_MOTION_DDOT = 0

CCSDS_OMM_VERS = 2.0
CREATION_DATE  = 
ORIGINATOR     = 

OBJECT_NAME    = SL-3 R/B
OBJECT_ID      = 1983-075B
CENTER_NAME    = EARTH
REF_FRAME      = TEME
TIME_SYSTEM    = UTC
MEAN_ELEMENT_THEORY = SGP/SGP4

EPOCH          = 2025-12-28T11:37:46.575840
MEAN_MOTION    = 15.36466338
ECCENTRICITY   = .0024264
INCLINATION    = 97.6114
RA_OF_ASC_NODE = 359.5005
ARG_OF_PERICENTER = 121.4651
MEAN_ANOMALY   = 238.8969

EPHEMERIS_TYPE = 0
CLASSIFICATION_TYPE = U
NORAD_CAT_ID   = 14208
ELEMENT_SET_NO = 999
REV_AT_EPOCH   = 31921
BSTAR          = .39576E-3
MEAN_MOTION_DOT = .14142E-3
MEAN_MOTION_DDOT = 0

CCSDS_OMM_VERS = 2.0
CREATION_DATE  = 
ORIGINATOR     = 

OBJECT_NAME    = COSMOS 1536
OBJECT_ID      = 1984-013A
CENTER_NAME    = EARTH
REF_FRAME      = TEME
TIME_SYSTEM    = UTC
MEAN_ELEMENT_THEORY = SGP/SGP4

EPOCH          = 2025-12-28T12:18:57.705696
MEAN_MOTION    = 15.22707057
ECCENTRICITY   = .001481
INCLINATION    = 82.5448
RA_OF_ASC_NODE = 178.5189
ARG_OF_PERICENTER = 168.1673
MEAN_ANOMALY   = 191.9914

EPHEMERIS_TYPE = 0
CLASSIFICATION_TYPE = U
NORAD_CAT_ID   = 14699
ELEMENT_SET_NO = 999
REV_AT_EPOCH   = 26178
BSTAR          = .36927E-3
MEAN_MOTION_DOT = .8665E-4
MEAN_MOTION_DDOT = 0

CCSDS_OMM_VERS = 2.0
CREATION_DATE  = 
ORIGINATOR     = 

OBJECT_NAME    = SL-14 R/B
OBJECT_ID      = 1984-027B
CENTER_NAME    = EARTH
REF_FRAME      = TEME
TIME_SYSTEM    = UTC
MEAN_ELEMENT_THEORY = SGP/SGP4

EPOCH          = 2025-12-28T07:31:27.397056
MEAN_MOTION    = 14.85891817
ECCENTRICITY   = .0017181
INCLINATION    = 82.5425
RA_OF_ASC_NODE = 311.9513
ARG_OF_PERICENTER = 205.3491
MEAN_ANOMALY   = 154.6884

EPHEMERIS_TYPE = 0
CLASSIFICATION_TYPE = U
NORAD_CAT_ID   = 14820
ELEMENT_SET_NO = 999
REV_AT_EPOCH   = 23703
BSTAR          = .76924E-4
MEAN_MOTION_DOT = .696E-5
MEAN_MOTION_DDOT = 0

CCSDS_OMM_VERS = 2.0
CREATION_DATE  = 
ORIGINATOR     = 

OBJECT_NAME    = SL-8 R/B
OBJECT_ID      = 1985-006B
CENTER_NAME    = EARTH
REF_FRAME      = TEME
TIME_SYSTEM    = UTC
MEAN_ELEMENT_THEORY = SGP/SGP4

EPOCH          = 2025-12-28T09:57:52.574112
MEAN_MOTION    = 14.37731222
ECCENTRICITY   = .0019371
INCLINATION    = 74.0459
RA_OF_ASC_NODE = 32.2940
ARG_OF_PERICENTER = 321.4369
MEAN_ANOMALY   = 140.1169

EPHEMERIS_TYPE = 0
CLASSIFICATION_TYPE = U
NORAD_CAT_ID   = 15483
ELEMENT_SET_NO = 999
REV_AT_EPOCH   = 14378
BSTAR          = .13113E-3
MEAN_MOTION_DOT = .369E-5
MEAN_MOTION_DDOT = 0

CCSDS_OMM_VERS = 2.0
CREATION_DATE  = 
ORIGINATOR     = 

OBJECT_NAME    = SL-12 R/B(2)
OBJECT_ID      = 1985-042D
CENTER_NAME    = EARTH
REF_FRAME      = TEME
TIME_SYSTEM    = UTC
MEAN_ELEMENT_THEORY = SGP/SGP4

EPOCH          = 2025-12-28T02:25:57.184320
MEAN_MOTION    = 14.21956398
ECCENTRICITY   = .00372023
INCLINATION    = 71.1065
RA_OF_ASC_NODE = 238.9677
ARG_OF_PERICENTER = 238.9414
MEAN_ANOMALY   = 283.2886

EPHEMERIS_TYPE = 0
CLASSIFICATION_TYPE = U
NORAD_CAT_ID   = 15772
ELEMENT_SET_NO = 999
REV_AT_EPOCH   = 10421
BSTAR          = .74237288E-4
MEAN_MOTION_DOT = .117E-5
MEAN_MOTION_DDOT = 0

CCSDS_OMM_VERS = 2.0
CREATION_DATE  = 
ORIGINATOR     = 

OBJECT_NAME    = SL-14 R/B
OBJECT_ID      = 1985-069B
CENTER_NAME    = EARTH
REF_FRAME      = TEME
TIME_SYSTEM    = UTC
MEAN_ELEMENT_THEORY = SGP/SGP4

EPOCH          = 2025-12-28T12:31:40.100160
MEAN_MOTION    = 14.86343081
ECCENTRICITY   = .0020231
INCLINATION    = 82.5272
RA_OF_ASC_NODE = 91.8665
ARG_OF_PERICENTER = 69.9934
MEAN_ANOMALY   = 290.3459

EPHEMERIS_TYPE = 0
CLASSIFICATION_TYPE = U
NORAD_CAT_ID   = 15945
ELEMENT_SET_NO = 999
REV_AT_EPOCH   = 16226
BSTAR          = .75074E-4
MEAN_MOTION_DOT = .688E-5
MEAN_MOTION_DDOT = 0

CCSDS_OMM_VERS = 2.0
CREATION_DATE  = 
ORIGINATOR     = 

OBJECT_NAME    = SL-16 R/B
OBJECT_ID      = 1985-097B
CENTER_NAME    = EARTH
REF_FRAME      = TEME
TIME_SYSTEM    = UTC
MEAN_ELEMENT_THEORY = SGP/SGP4

EPOCH          = 2025-12-28T06:16:41.552256
MEAN_MOTION    = 14.16586756
ECCENTRICITY   = .0007654
INCLINATION    = 71.0032
RA_OF_ASC_NODE = 290.9255
ARG_OF_PERICENTER = 346.9180
MEAN_ANOMALY   = 164.7964

EPHEMERIS_TYPE = 0
CLASSIFICATION_TYPE = U
NORAD_CAT_ID   = 16182
ELEMENT_SET_NO = 999
REV_AT_EPOCH   = 7711
BSTAR          = -.63149E-4
MEAN_MOTION_DOT = -.174E-5
MEAN_MOTION_DDOT = 0

CCSDS_OMM_VERS = 2.0
CREATION_DATE  = 
ORIGINATOR     = 

OBJECT_NAME    = SL-14 R/B
OBJECT_ID      = 1986-006B
CENTER_NAME    = EARTH
REF_FRAME      = TEME
TIME_SYSTEM    = UTC
MEAN_ELEMENT_THEORY = SGP/SGP4

EPOCH          = 2025-12-28T09:10:29.013600
MEAN_MOTION    = 14.86691984
ECCENTRICITY   = .0077531
INCLINATION    = 82.5274
RA_OF_ASC_NODE = 326.8322
ARG_OF_PERICENTER = 148.0338
MEAN_ANOMALY   = 212.5618

EPHEMERIS_TYPE = 0
CLASSIFICATION_TYPE = U
NORAD_CAT_ID   = 16496
ELEMENT_SET_NO = 999
REV_AT_EPOCH   = 13861
BSTAR          = .83589E-4
MEAN_MOTION_DOT = .812E-5
MEAN_MOTION_DDOT = 0

CCSDS_OMM_VERS = 2.0
CREATION_DATE  = 
ORIGINATOR     = 

OBJECT_NAME    = COSMOS 1743
OBJECT_ID      = 1986-034A
CENTER_NAME    = EARTH
REF_FRAME      = TEME
TIME_SYSTEM    = UTC
MEAN_ELEMENT_THEORY = SGP/SGP4

EPOCH          = 2025-12-28T09:07:51.959136
MEAN_MOTION    = 15.53095010
ECCENTRICITY   = .0005104
INCLINATION    = 82.5344
RA_OF_ASC_NODE = 148.3348
ARG_OF_PERICENTER = 189.8642
MEAN_ANOMALY   = 170.2511

EPHEMERIS_TYPE = 0
CLASSIFICATION_TYPE = U
NORAD_CAT_ID   = 16719
ELEMENT_SET_NO = 999
REV_AT_EPOCH   = 16916
BSTAR          = .65674E-3
MEAN_MOTION_DOT = .41275E-3
MEAN_MOTION_DDOT = 0

