SL-3 R/B                
1 13403U 82079B   25362.44197154  .00008580  00000+0  35193-3 0  9994
2 13403  81.1471 277.1510 0026690  48.7738 311.5788 15.23781492366840
SL-14 R/B               
1 13553U 82092B   25362.31763543  .00000615  00000+0  66447-4 0  9990
2 13553  82.5668 208.1427 0020437 173.8335 359.3465 14.86571050318323
SL-3 R/B                
1 13819U 83010B   25362.26434041  .00018941  00000+0  41395-3 0  9993
2 13819  81.1041  89.6637 0016450 295.8150  64.1396 15.43897746346910
SL-3 R/B                
1 14208U 83075B   25362.48456685  .00014142  00000+0  39576-3 0  9996
2 14208  97.6114 359.5005 0024264 121.4651 238.8969 15.36466338319216
COSMOS 1536             
1 14699U 84013A   25362.51316789  .00008665  00000+0  36927-3 0  9997
2 14699  82.5448 178.5189 0014810 168.1673 191.9914 15.22707057261781
SL-14 R/B               
1 14820U 84027B   25362.31351154  .00000696  00000+0  76924-4 0  9999
2 14820  82.5425 311.9513 0017181 205.3491 154.6884 14.85891817237031
SL-8 R/B                
1 15483U 85006B   25362.41519183  .00000369  00000+0  13113-3 0  9999
2 15483  74.0459  32.2940 0019371 321.4369 140.1169 14.37731222143788
SL-12 R/B(2)            
1 15772U 85042D   25362.10135630  .00000117  00000+0  74237-4 0  9993
2 15772  71.1065 238.9677 0037202 238.9414 283.2886 14.21956398104214
SL-14 R/B               
1 15945U 85069B   25362.52199190  .00000688  00000+0  75074-4 0  9994
2 15945  82.5272  91.8665 0020231  69.9934 290.3459 14.86343081162262
SL-16 R/B               
1 16182U 85097B   25362.26159204 -.00000174  00000+0 -63149-4 0  9994
2 16182  71.0032 290.9255 0007654 346.9180 164.7964 14.16586756 77110
SL-14 R/B               
1 16496U 86006B   25362.38228025  .00000812  00000+0  83589-4 0  9991
2 16496  82.5274 326.8322 0077531 148.0338 212.5618 14.86691984138612
COSMOS 1743             
1 16719U 86034A   25362.38046249  .00041275  00000+0  65674-3 0  9998
2 16719  82.5344 148.3348 0005104 189.8642 170.2511 15.53095010169160
